[{"OBJECT_NAME":"TIANMU-1 09","OBJECT_ID":"2023-101C","EPOCH":"2026-03-09T22:17:34.703232","MEAN_MOTION":15.29080822,"ECCENTRICITY":0.00049013,"INCLINATION":97.267,"RA_OF_ASC_NODE":121.1263,"ARG_OF_PERICENTER":139.4293,"MEAN_ANOMALY":220.7314,"EPHEMERIS_TYPE":0,"CLASSIFICATION_TYPE":"U","NORAD_CAT_ID":57401,"ELEMENT_SET_NO":999,"REV_AT_EPOCH":14647,"BSTAR":0.00030540035,"MEAN_MOTION_DOT":8.553e-5,"MEAN_MOTION_DDOT":0},{"OBJECT_NAME":"STARLINK-33558","OBJECT_ID":"2025-083K","EPOCH":"2026-03-09T04:34:55.780896","MEAN_MOTION":15.2760193,"ECCENTRICITY":7.998e-5,"INCLINATION":43.0021,"RA_OF_ASC_NODE":7.7636,"ARG_OF_PERICENTER":244.9996,"MEAN_ANOMALY":115.0773,"EPHEMERIS_TYPE":0,"CLASSIFICATION_TYPE":"U","NORAD_CAT_ID":63643,"ELEMENT_SET_NO":999,"REV_AT_EPOCH":4999,"BSTAR":0.00097657421,"MEAN_MOTION_DOT":0.00026726,"MEAN_MOTION_DDOT":0}]
